{
  "norad_id": 68901,
  "name": "STARLINK-37360",
  "history": [
    {
      "epoch": "2026-05-04T18:00:02.000160Z",
      "apogee_km": 280.4315912759839,
      "perigee_km": 278.4502960799455,
      "latitude_deg": -52.17547696954173,
      "longitude_deg": -2.393649551751105,
      "height_km": 300.55891796699086,
      "semi_major_axis_km": 6657.577943677964,
      "eccentricity": 0.0001488,
      "inclination_deg": 97.2871,
      "raan_deg": 319.6758,
      "arg_perigee_deg": 91.5601,
      "mean_anomaly_deg": 140.9441,
      "mean_motion_rev_day": 15.98189866
    }
  ]
}