{"generatedAt":"2026-05-05T08:19:47.084492Z","satellites":[{"name":"STARLINK-37360","tle1":"1 68901U 26097G   26124.75002315 -.02234264  14423-2 -49351-2 0  9991","tle2":"2 68901  97.2871 319.6758 0001488  91.5601 140.9441 15.98189866  1940"}]}